{
  "type": "FeatureCollection",
  "features": [
    {
      "type": "Feature",
      "properties": {
        "norad_id": 41330,
        "name": "COSMOS 2514 (751)",
        "group": "gnss",
        "lat": 63.879524711295254,
        "lon": 67.92056356260917,
        "alt_km": 19138.456493070673,
        "timestamp": "2025-12-26T17:24:54.962146+00:00",
        "meta_object_name": "COSMOS 2514 (751)",
        "meta_object_id": "2016-008A",
        "meta_epoch": "2025-12-26T03:04:27.973056",
        "meta_mean_motion": 2.13102553,
        "meta_eccentricity": 0.00115404,
        "meta_inclination": 65.126,
        "meta_ra_of_asc_node": 318.9457,
        "meta_arg_of_pericenter": 220.0269,
        "meta_mean_anomaly": 139.8925,
        "meta_ephemeris_type": 0,
        "meta_classification_type": "U",
        "meta_norad_cat_id": 41330,
        "meta_element_set_no": 999,
        "meta_rev_at_epoch": 7693,
        "meta_bstar": 0,
        "meta_mean_motion_dot": -3.4e-07,
        "meta_mean_motion_ddot": 0,
        "tle_line1": "1 41330U 16008A   25360.12810154 -.00000034  00000+0  00000+0 0  9990",
        "tle_line2": "2 41330  65.1260 318.9457 0011540 220.0269 139.8925  2.13102553 76936"
      },
      "geometry": {
        "type": "Point",
        "coordinates": [
          67.92056356260917,
          63.879524711295254
        ]
      }
    },
    {
      "type": "Feature",
      "properties": {
        "norad_id": 41384,
        "name": "IRNSS-1F",
        "group": "gnss",
        "lat": -4.656441538820026,
        "lon": 29.58310241066959,
        "alt_km": 35811.255484571346,
        "timestamp": "2025-12-26T17:24:54.962160+00:00",
        "meta_object_name": "IRNSS-1F",
        "meta_object_id": "2016-015A",
        "meta_epoch": "2025-12-24T23:31:33.658752",
        "meta_mean_motion": 1.00278532,
        "meta_eccentricity": 0.00226614,
        "meta_inclination": 4.9118,
        "meta_ra_of_asc_node": 100.9953,
        "meta_arg_of_pericenter": 182.2729,
        "meta_mean_anomaly": 195.8977,
        "meta_ephemeris_type": 0,
        "meta_classification_type": "U",
        "meta_norad_cat_id": 41384,
        "meta_element_set_no": 999,
        "meta_rev_at_epoch": 3592,
        "meta_bstar": 0,
        "meta_mean_motion_dot": 1.78e-06,
        "meta_mean_motion_ddot": 0,
        "tle_line1": "1 41384U 16015A   25358.98025068  .00000178  00000+0  00000+0 0  9998",
        "tle_line2": "2 41384   4.9118 100.9953 0022661 182.2729 195.8977  1.00278532 35923"
      },
      "geometry": {
        "type": "Point",
        "coordinates": [
          29.58310241066959,
          -4.656441538820026
        ]
      }
    },
    {
      "type": "Feature",
      "properties": {
        "norad_id": 41434,
        "name": "BEIDOU-2 IGSO-6 (C13)",
        "group": "gnss",
        "lat": 41.99344108519851,
        "lon": 71.13175564701842,
        "alt_km": 36033.625502771734,
        "timestamp": "2025-12-26T17:24:54.962174+00:00",
        "meta_object_name": "BEIDOU-2 IGSO-6 (C13)",
        "meta_object_id": "2016-021A",
        "meta_epoch": "2025-12-25T02:21:14.682240",
        "meta_mean_motion": 1.00290736,
        "meta_eccentricity": 0.00608236,
        "meta_inclination": 59.9818,
        "meta_ra_of_asc_node": 39.7747,
        "meta_arg_of_pericenter": 230.5129,
        "meta_mean_anomaly": 312.5474,
        "meta_ephemeris_type": 0,
        "meta_classification_type": "U",
        "meta_norad_cat_id": 41434,
        "meta_element_set_no": 999,
        "meta_rev_at_epoch": 3573,
        "meta_bstar": 0,
        "meta_mean_motion_dot": -1.35e-06,
        "meta_mean_motion_ddot": 0,
        "tle_line1": "1 41434U 16021A   25359.09808660 -.00000135  00000+0  00000+0 0  9995",
        "tle_line2": "2 41434  59.9818  39.7747 0060823 230.5129 312.5474  1.00290736 35738"
      },
      "geometry": {
        "type": "Point",
        "coordinates": [
          71.13175564701842,
          41.99344108519851
        ]
      }
    },
    {
      "type": "Feature",
      "properties": {
        "norad_id": 41469,
        "name": "IRNSS-1G",
        "group": "gnss",
        "lat": 1.9985510003947478,
        "lon": 126.21633868733136,
        "alt_km": 35779.39899479377,
        "timestamp": "2025-12-26T17:24:54.962188+00:00",
        "meta_object_name": "IRNSS-1G",
        "meta_object_id": "2016-027A",
        "meta_epoch": "2025-12-25T22:20:51.595872",
        "meta_mean_motion": 1.0027347,
        "meta_eccentricity": 0.00027122,
        "meta_inclination": 4.7669,
        "meta_ra_of_asc_node": 101.7607,
        "meta_arg_of_pericenter": 326.3012,
        "meta_mean_anomaly": 131.4056,
        "meta_ephemeris_type": 0,
        "meta_classification_type": "U",
        "meta_norad_cat_id": 41469,
        "meta_element_set_no": 999,
        "meta_rev_at_epoch": 3544,
        "meta_bstar": 0,
        "meta_mean_motion_dot": -3.14e-06,
        "meta_mean_motion_ddot": 0,
        "tle_line1": "1 41469U 16027A   25359.93115273 -.00000314  00000+0  00000+0 0  9992",
        "tle_line2": "2 41469   4.7669 101.7607 0002712 326.3012 131.4056  1.00273470 35449"
      },
      "geometry": {
        "type": "Point",
        "coordinates": [
          126.21633868733136,
          1.9985510003947478
        ]
      }
    },
    {
      "type": "Feature",
      "properties": {
        "norad_id": 41549,
        "name": "GSAT0211 (GALILEO 14)",
        "group": "gnss",
        "lat": -42.9697230789139,
        "lon": 86.91031392053777,
        "alt_km": 23236.341929454153,
        "timestamp": "2025-12-26T17:24:54.962199+00:00",
        "meta_object_name": "GSAT0211 (GALILEO 14)",
        "meta_object_id": "2016-030A",
        "meta_epoch": "2025-12-25T18:06:09.128448",
        "meta_mean_motion": 1.70473226,
        "meta_eccentricity": 0.00039908,
        "meta_inclination": 55.1481,
        "meta_ra_of_asc_node": 226.465,
        "meta_arg_of_pericenter": 16.0221,
        "meta_mean_anomaly": 344.0794,
        "meta_ephemeris_type": 0,
        "meta_classification_type": "U",
        "meta_norad_cat_id": 41549,
        "meta_element_set_no": 999,
        "meta_rev_at_epoch": 5971,
        "meta_bstar": 0,
        "meta_mean_motion_dot": 7e-07,
        "meta_mean_motion_ddot": 0,
        "tle_line1": "1 41549U 16030A   25359.75427232  .00000070  00000+0  00000+0 0  9994",
        "tle_line2": "2 41549  55.1481 226.4650 0003990  16.0221 344.0794  1.70473226 59712"
      },
      "geometry": {
        "type": "Point",
        "coordinates": [
          86.91031392053777,
          -42.9697230789139
        ]
      }
    },
    {
      "type": "Feature",
      "properties": {
        "norad_id": 41550,
        "name": "GSAT0210 (GALILEO 13)",
        "group": "gnss",
        "lat": 53.43446508315394,
        "lon": -63.63786302273228,
        "alt_km": 23216.67253556047,
        "timestamp": "2025-12-26T17:24:54.962211+00:00",
        "meta_object_name": "GSAT0210 (GALILEO 13)",
        "meta_object_id": "2016-030B",
        "meta_epoch": "2025-12-26T00:16:47.841312",
        "meta_mean_motion": 1.70473562,
        "meta_eccentricity": 5.771e-05,
        "meta_inclination": 55.1475,
        "meta_ra_of_asc_node": 226.456,
        "meta_arg_of_pericenter": 190.7717,
        "meta_mean_anomaly": 169.315,
        "meta_ephemeris_type": 0,
        "meta_classification_type": "U",
        "meta_norad_cat_id": 41550,
        "meta_element_set_no": 999,
        "meta_rev_at_epoch": 5971,
        "meta_bstar": 0,
        "meta_mean_motion_dot": 7e-07,
        "meta_mean_motion_ddot": 0,
        "tle_line1": "1 41550U 16030B   25360.01166483  .00000070  00000+0  00000+0 0  9995",
        "tle_line2": "2 41550  55.1475 226.4560 0000577 190.7717 169.3150  1.70473562 59712"
      },
      "geometry": {
        "type": "Point",
        "coordinates": [
          -63.63786302273228,
          53.43446508315394
        ]
      }
    },
    {
      "type": "Feature",
      "properties": {
        "norad_id": 41586,
        "name": "BEIDOU-2 G7 (C03)",
        "group": "gnss",
        "lat": 1.1498128561471175,
        "lon": 107.11947587144792,
        "alt_km": 35769.895318897004,
        "timestamp": "2025-12-26T17:24:54.962222+00:00",
        "meta_object_name": "BEIDOU-2 G7 (C03)",
        "meta_object_id": "2016-037A",
        "meta_epoch": "2025-12-26T03:03:38.712096",
        "meta_mean_motion": 1.00268059,
        "meta_eccentricity": 0.00051813,
        "meta_inclination": 1.7876,
        "meta_ra_of_asc_node": 67.9052,
        "meta_arg_of_pericenter": 0.6585,
        "meta_mean_anomaly": 182.6402,
        "meta_ephemeris_type": 0,
        "meta_classification_type": "U",
        "meta_norad_cat_id": 41586,
        "meta_element_set_no": 999,
        "meta_rev_at_epoch": 515,
        "meta_bstar": 0,
        "meta_mean_motion_dot": -3.32e-06,
        "meta_mean_motion_ddot": 0,
        "tle_line1": "1 41586U 16037A   25360.12753139 -.00000332  00000+0  00000+0 0  9995",
        "tle_line2": "2 41586   1.7876  67.9052 0005181   0.6585 182.6402  1.00268059  5158"
      },
      "geometry": {
        "type": "Point",
        "coordinates": [
          107.11947587144792,
          1.1498128561471175
        ]
      }
    }
  ]
}